satname,norad_id,inclination_deg,eccentricity,mean_motion_rev_per_day,perigee_km,apogee_km,l1,l2
STARLINK-1265,45406,53.1593,0.0001699,15.30914107,471.919681097349,474.2477258923964,1 45406U 20019AY  26086.59541078  .00067362  00000+0  22164-2 0  9992,2 45406  53.1593  46.1540 0001699  94.6633 265.4563 15.30914107332711
STARLINK-1278,45408,53.0456,0.0003432,15.58675161,389.167050757349,393.81372299570194,1 45408U 20019BA  26086.87641561  .00063613  00000+0  81256-3 0  9996,2 45408  53.0456  42.1265 0003432  96.8512 263.2890 15.58675161332798
STARLINK-1296,45412,53.1597,0.0002406,15.31411863,469.95100480504607,473.2470977929315,1 45412U 20019BE  26086.58496934  .00049161  00000+0  15998-2 0  9992,2 45412  53.1597  46.0632 0002406 112.3811 247.7445 15.31411863332710
STARLINK-1298,45413,53.0238,0.0005014,16.2574013,200.71243916065123,207.31301890892792,1 45413U 20019BF  26086.89666559  .02461661  11966-4  77285-3 0  9990,2 45413  53.0238 318.7831 0005014 258.4895 101.5582 16.25740130334047
STARLINK-1309,45414,53.0675,0.0006889,15.58107522,388.469734162396,397.79919198421976,1 45414U 20019BG  26086.86351639  .00100192  00000+0  12968-2 0  9993,2 45414  53.0675  35.5787 0006889 102.6331 257.5451 15.58107522332865
STARLINK-1316,45415,53.1598,0.0001346,15.31406494,470.6930844471208,472.5370377019626,1 45415U 20019BH  26086.30385612  .00048298  00000+0  15724-2 0  9992,2 45415  53.1598  47.4214 0001346 130.8019 229.3099 15.31406494332694
STARLINK-1286,45417,53.0499,0.0003838,15.5219056,407.7262259665258,412.9370544947669,1 45417U 20019BK  26086.57813759  .00037266  00000+0  60926-3 0  9999,2 45417  53.0499  44.6819 0003838 103.0020 257.1417 15.52190560333003
STARLINK-1308,45419,53.0534,0.0005554,15.53639558,402.34218093963136,409.87812267585923,1 45419U 20019BM  26086.26023473  .00088980  00000+0  13614-2 0  9993,2 45419  53.0534  67.5214 0005554  79.6767 280.4868 15.53639558332409
STARLINK-1329,45531,53.0478,9.01e-05,15.64884848,372.9616264149681,374.17828400829785,1 45531U 20025A   26086.45655837  .00054431  00000+0  54841-3 0  9993,2 45531  53.0478 354.8600 0000901 110.8730 249.2381 15.64884848328225
STARLINK-1338,45532,53.0498,0.0004779,15.57415279,391.90383702846793,398.37773593678776,1 45532U 20025B   26086.04145533  .00096466  00000+0  12829-2 0  9999,2 45532  53.0498   0.6759 0004779  74.5414 285.6125 15.57415279328108
STARLINK-1350,45535,53.0735,0.0002096,15.36556978,454.86724990861694,457.7322457933169,1 45535U 20025E   26086.87518304  .00009618  00000+0  27597-3 0  9995,2 45535  53.0735 307.7077 0002096 107.0556 253.0676 15.36556978328950
STARLINK-1362,45538,53.1622,0.0001388,15.29767183,475.5562629685219,477.4591123338132,1 45538U 20025H   26086.81339479 -.00190978  00000+0 -66912-2 0  9991,2 45538  53.1622  16.8161 0001388  63.4424 296.6719 15.29767183327957
STARLINK-1368,45540,53.1595,0.0001188,15.3020299,474.3919646675622,476.02031899806207,1 45540U 20025K   26086.23518324  .00005978  00000+0  21377-3 0  9998,2 45540  53.1595  19.8295 0001188  93.7196 266.3940 15.30202990327851
STARLINK-1371,45542,53.0512,0.000177,15.49951258,415.6658065276888,418.07123848265655,1 45542U 20025M   26086.75420841  .00079041  00000+0  13831-2 0  9990,2 45542  53.0512   2.9293 0001770  98.7549 261.3660 15.49951258328130
STARLINK-1372,45543,53.1637,0.0001544,15.30183159,474.2071887474285,476.3235193943656,1 45543U 20025N   26086.53855024 -.00000618  00000+0 -87402-5 0  9996,2 45543  53.1637  18.1167 0001544  88.6459 271.4719 15.30183159327005
STARLINK-1373,45544,53.0501,0.0004659,15.53809507,402.45490467387026,408.7760052113863,1 45544U 20025P   26086.78820104  .00089642  00000+0  13631-2 0  9997,2 45544  53.0501   1.8165 0004659  86.1296 274.0246 15.53809507328152
STARLINK-1327,45555,53.0466,0.0006164,15.57285606,391.3415020016764,399.69206238436345,1 45555U 20025AA  26085.99813982  .00133494  00000+0  17726-2 0  9991,2 45555  53.0466 342.8527 0006164 124.3914 235.7681 15.57285606328349
STARLINK-1356,45564,53.0507,0.0005524,15.47409045,420.5510840844063,428.0664261546617,1 45564U 20025AK  26086.44168027  .00079035  00000+0  15109-2 0  9998,2 45564  53.0507 349.1581 0005524 105.3616 254.8001 15.47409045328298
STARLINK-1357,45565,53.0504,0.0004217,15.59230981,387.02743579419985,392.7355826048588,1 45565U 20025AL  26086.81046089  .00109326  00000+0  13550-2 0  9998,2 45565  53.0504 310.0851 0004217 186.4579 173.6379 15.59230981328884
STARLINK-1361,45567,53.0498,0.000721,15.50666245,409.8819579912888,419.67734380188085,1 45567U 20025AN  26086.88164828  .00077487  00000+0  13214-2 0  9998,2 45567  53.0498 346.7149 0007210  95.5611 264.6219 15.50666245328372
STARLINK-1363,45568,53.0412,0.0005606,15.81234521,323.18957382815825,330.7073156287879,1 45568U 20025AP  26086.79997798  .00128499  00000+0  63367-3 0  9994,2 45568  53.0412 306.9668 0005606 127.9660 232.1868 15.81234521328916
STARLINK-1366,45569,53.0416,0.0006058,15.79952519,326.5109015650596,334.6391770718983,1 45569U 20025AQ  26086.82735856  .00116977  00000+0  61282-3 0  9996,2 45569  53.0416 307.7495 0006058 125.2015 234.9573 15.79952519328908
STARLINK-1376,45570,53.1623,0.0001622,15.31528078,470.1415627200322,472.36350468476485,1 45570U 20025AR  26086.47884856  .00047957  00000+0  15556-2 0  9997,2 45570  53.1623 355.1101 0001622 144.7688 215.3421 15.31528078328223
STARLINK-1320,45572,53.0456,0.0004939,15.71512325,351.2488299971401,357.8994020375412,1 45572U 20025AT  26086.75675711  .00084905  00000+0  64753-3 0  9996,2 45572  53.0456 256.3858 0004939 101.2199 258.9374 15.71512325329647
STARLINK-1321,45573,53.049,0.0004197,15.51301601,410.0745633273009,415.77498057867706,1 45573U 20025AU  26086.68428660  .00088801  00000+0  14782-2 0  9993,2 45573  53.0490 332.1494 0004197 128.7537 231.3847 15.51301601328258
STARLINK-1331,45578,53.0531,0.0005302,15.51231083,409.52985195060774,416.7313120945846,1 45578U 20025AZ  26086.82162639  .00079402  00000+0  13272-2 0  9995,2 45578  53.0531 338.1829 0005302 151.0339 209.0965 15.51231083328490
STARLINK-1333,45580,53.1622,0.0001324,15.30204601,474.29394970196427,476.10871369219876,1 45580U 20025BB  26086.13240264  .00001756  00000+0  71395-4 0  9992,2 45580  53.1622 356.7900 0001324  90.0820 270.0333 15.30204601328173
STARLINK-1335,45581,53.1587,0.0001272,15.2936598,476.83437113333366,478.57849770305074,1 45581U 20025BC  26086.15161422  .00000652  00000+0  34918-4 0  9997,2 45581  53.1587 354.0394 0001272  83.7810 276.3335 15.29365980328203
STARLINK-1337,45582,53.0531,0.0004513,15.61370609,380.64543342352226,386.7486648362674,1 45582U 20025BD  26086.88418006  .00097272  00000+0  11132-2 0  9996,2 45582  53.0531 333.1920 0004513 155.7383 204.3843 15.61370609328554
STARLINK-1347,45586,53.0449,0.000426,15.57579276,391.7801269097854,397.5505545040687,1 45586U 20025BH  26086.85948391  .00098435  00000+0  13007-2 0  9997,2 45586  53.0449 301.5058 0004260 140.7288 219.4033 15.57579276328996
STARLINK-1364,45589,53.0507,0.0007568,15.52585506,404.0437179139426,414.31700146957155,1 45589U 20025BL  26086.85765685  .00070588  00000+0  11255-2 0  9995,2 45589  53.0507 335.8749 0007568 127.3428 232.8272 15.52585506328512
STARLINK-1365,45590,53.0538,0.0004337,15.47893433,419.9399329268117,425.83914334599103,1 45590U 20025BM  26086.50283887  .00076798  00000+0  14446-2 0  9992,2 45590  53.0538   8.4929 0004337 109.1192 251.0284 15.47893433328047
STARLINK-1443,45660,53.1349,0.0003301,15.26666476,483.5200985139336,488.05166039894993,1 45660U 20035D   26086.85781363  .00043299  00000+0  16322-2 0  9996,2 45660  53.1349 341.0229 0003301 128.4499 231.6797 15.26666476321531
STARLINK-1446,45663,53.0234,0.000131,15.43619708,434.54423068477627,436.3293870226962,1 45663U 20035G   26086.74973971  .00018704  00000+0  41733-3 0  9993,2 45663  53.0234 273.5392 0001310   1.6809 358.4200 15.43619708322466
STARLINK-1448,45665,53.0501,0.0007318,15.55899175,394.58019338691156,404.5000015867927,1 45665U 20035J   26086.84916022  .00098589  00000+0  13857-2 0  9994,2 45665  53.0501 325.0450 0007318 150.7767 209.3655 15.55899175321745
STARLINK-1451,45668,53.0542,0.0002137,15.10963884,531.7821654823183,534.736096188637,1 45668U 20035M   26086.87591163  .00024258  00000+0  14500-2 0  9993,2 45668  53.0542 343.8931 0002137  90.8689 269.2547 15.10963884321493
STARLINK-1452,45669,53.0304,0.0005355,15.47834269,419.4208015862996,426.7048866193336,1 45669U 20035N   26086.83997458  .00079917  00000+0  15051-2 0  9991,2 45669  53.0304 295.0593 0005355 124.3172 235.8342 15.47834269322179
STARLINK-1453,45670,53.0454,0.0003733,15.56214583,396.0945180104045,401.1540479842897,1 45670U 20035P   26086.91667824  .00136365  00000+0  18843-2 0  9996,2 45670  53.0454 285.2732 0003733 122.3056 323.1007 15.56214583  5864
STARLINK-1454,45671,53.0496,0.0007342,15.54561347,398.4490142756449,408.407064379393,1 45671U 20035Q   26086.83589574  .00097633  00000+0  14416-2 0  9999,2 45671  53.0496 325.4088 0007342 133.6644 226.4975 15.54561347321737
STARLINK-1456,45673,53.0483,0.0002472,15.5280038,406.87652986795,410.23186999719655,1 45673U 20035S   26086.85031572  .00092859  00000+0  14640-2 0  9997,2 45673  53.0483 319.0035 0002472 193.4297 166.6647 15.52800380321847
STARLINK-1457,45674,53.0439,0.0005334,15.83971715,315.6493322607075,322.7940745254864,1 45674U 20035T   26086.91667824  .00212535  00000+0  91128-3 0  9992,2 45674  53.0439 290.8030 0005334 147.2796 114.3133 15.83971715  5889
STARLINK-1458,45675,53.0526,0.0006299,15.45097828,426.80150660344043,435.3797715831706,1 45675U 20035U   26086.08940464  .00084036  00000+0  17373-2 0  9997,2 45675  53.0526 332.7506 0006299 141.4201 218.7256 15.45097828321540
STARLINK-1460,45676,53.1615,0.0001428,15.30199222,474.23873338084013,476.1960513953063,1 45676U 20035V   26086.42997014 -.00002324  00000+0 -66372-4 0  9996,2 45676  53.1615 342.5484 0001428  79.8101 280.3061 15.30199222321439
